      2.10          N: GNSS NAV DATA                        RINEX VERSION / TYPE
fic2rin                                 09/22/2022 00:17:31 PGM / RUN BY / DATE
                                                            END OF HEADER
32 22  9 21  1 59 44.0 -.239446759224D-03 -.114823706099D-10  .000000000000D+00
     .100000000000D+01 -.602187500000D+02  .439589739249D-08  .176844278548D+00
    -.317580997944D-05  .608903483953D-02  .995397567749D-05  .515365235329D+04
     .266384000000D+06 -.186264514923D-07  .256335846569D+01  .115483999252D-06
     .958908938795D+00  .190437500000D+03 -.229368163220D+01 -.792283001767D-08
     .198222542479D-09  .100000000000D+01  .222800000000D+04  .000000000000D+00
     .240000000000D+01  .000000000000D+00  .465661287308D-09  .100000000000D+01
     .259200000000D+06  .400000000000D+01
20 22  9 21  1 59 44.0  .484745018184D-03 -.306954461848D-11  .000000000000D+00
     .100000000000D+02 -.763125000000D+02  .485520223866D-08 -.168536615472D+01
    -.384263694286D-05  .476321135648D-02  .344775617123D-05  .515365777206D+04
     .266384000000D+06 -.447034835815D-07  .136290224399D+01 -.484287738800D-07
     .944512442437D+00  .303343750000D+03 -.309232366465D+01 -.841427905993D-08
    -.135719938995D-10  .100000000000D+01  .222800000000D+04  .000000000000D+00
     .240000000000D+01  .000000000000D+00 -.838190317154D-08  .100000000000D+02
     .259200000000D+06  .400000000000D+01
29 22  9 21  1 59 44.0 -.553285237402D-03 -.318323145621D-11  .000000000000D+00
     .430000000000D+02  .628125000000D+02  .387944730884D-08 -.633306476305D+00
     .318884849548D-05  .222002004739D-02  .955350697041D-05  .515365077019D+04
     .266384000000D+06 -.167638063431D-07 -.494432546643D+00 -.167638063431D-07
     .979743471368D+00  .204281250000D+03  .245945789827D+01 -.772675042160D-08
    -.185722021782D-09  .100000000000D+01  .222800000000D+04  .000000000000D+00
     .240000000000D+01  .000000000000D+00 -.102445483208D-07  .430000000000D+02
     .259200000000D+06  .400000000000D+01
1  22  9 21  2  0  0.0  .280423555523D-03 -.648014975013D-11  .000000000000D+00
     .990000000000D+02  .499687500000D+02  .380944439294D-08 -.278582735847D+01
     .269897282124D-05  .119965412887D-01  .396557152271D-05  .515366010857D+04
     .266400000000D+06  .113621354103D-06  .491264430770D+00 -.104308128357D-06
     .988725266113D+00  .316312500000D+03  .943833074985D+00 -.771925010918D-08
     .182864759908D-09  .100000000000D+01  .222800000000D+04  .000000000000D+00
     .240000000000D+01  .000000000000D+00  .512227416039D-08  .990000000000D+02
     .259200000000D+06  .400000000000D+01
3  22  9 21  2  0  0.0 -.354229938239D-03 -.579802872380D-11  .000000000000D+00
     .370000000000D+02 -.775000000000D+02  .408838458334D-08  .239451931437D+01
    -.410526990891D-05  .451688270550D-02  .439397990704D-05  .515355267334D+04
     .266400000000D+06  .223517417908D-07  .152425670997D+01 -.540167093277D-07
     .975086077095D+00  .300875000000D+03  .105850008895D+01 -.797568936233D-08
    -.792890169915D-10  .100000000000D+01  .222800000000D+04  .000000000000D+00
     .340000000000D+01  .000000000000D+00  .186264514923D-08  .370000000000D+02
     .259200000000D+06  .400000000000D+01
2  22  9 21  2  0  0.0 -.645317602903D-03  .136424205266D-11  .000000000000D+00
     .270000000000D+02  .682500000000D+02  .425410577201D-08  .305138732690D+01
     .361911952496D-05  .200065998361D-01  .381842255592D-05  .515489435577D+04
     .266400000000D+06  .227242708206D-06  .397562165180D+00  .447034835815D-07
     .966703044479D+00  .308156250000D+03 -.139370993092D+01 -.778103839720D-08
     .123576576032D-09  .100000000000D+01  .222800000000D+04  .000000000000D+00
     .240000000000D+01  .000000000000D+00 -.172294676304D-07  .270000000000D+02
     .259200000000D+06  .400000000000D+01
7  22  9 21  2  0  0.0  .305871479213D-03 -.318323145621D-11  .000000000000D+00
     .410000000000D+02  .267187500000D+02  .491091884520D-08  .286689666520D+01
     .126101076603D-05  .164027777500D-01  .705569982529D-05  .515363152122D+04
     .266400000000D+06 -.558793544769D-08 -.266068793279D+01 -.229105353355D-06
     .950875507027D+00  .239718750000D+03 -.224185980733D+01 -.784996983990D-08
     .322870591713D-09  .100000000000D+01  .222800000000D+04  .000000000000D+00
     .240000000000D+01  .000000000000D+00 -.111758708954D-07  .410000000000D+02
     .259200000000D+06  .400000000000D+01
5  22  9 21  2  0  0.0 -.974386930466D-04 -.147792889038D-11  .000000000000D+00
     .890000000000D+02 -.855000000000D+02  .446768609706D-08 -.262421325964D+00
    -.428594648838D-05  .611337309238D-02  .418908894062D-05  .515378786087D+04
     .266400000000D+06 -.558793544769D-08  .148096750548D+01  .132247805595D-06
     .962108994559D+00  .298625000000D+03  .111250678344D+01 -.830427447779D-08
    -.546451333320D-10  .100000000000D+01  .222800000000D+04  .000000000000D+00
     .240000000000D+01  .000000000000D+00 -.111758708954D-07  .890000000000D+02
     .259200000000D+06  .400000000000D+01
8  22  9 21  2  0  0.0 -.854930840433D-04 -.159161572810D-11  .000000000000D+00
     .550000000000D+02  .406562500000D+02  .429946480425D-08 -.539886356411D+00
     .207126140594D-05  .752587127499D-02  .891648232937D-05  .515359701920D+04
     .266400000000D+06  .160187482834D-06 -.593101085567D+00  .111758708954D-07
     .962197392846D+00  .210593750000D+03  .163891546284D+00 -.795961726429D-08
    -.300012496725D-09  .100000000000D+01  .222800000000D+04  .000000000000D+00
     .240000000000D+01  .000000000000D+00  .512227416039D-08  .550000000000D+02
     .259200000000D+06  .400000000000D+01
6  22  9 21  2  0  0.0  .467499252409D-03  .121644916362D-10  .000000000000D+00
     .188000000000D+03  .475000000000D+02  .395159317115D-08 -.254163172425D+01
     .241771340370D-05  .250596553087D-02  .381842255592D-05  .515380186653D+04
     .266400000000D+06  .335276126862D-07  .482994001885D+00  .000000000000D+00
     .988031684948D+00  .323125000000D+03 -.926035561807D+00 -.794854537453D-08
     .103218585183D-09  .100000000000D+01  .222800000000D+04  .000000000000D+00
     .240000000000D+01  .000000000000D+00  .372529029846D-08  .188000000000D+03
     .259200000000D+06  .400000000000D+01
4  22  9 21  2  0  0.0 -.115655362606D-03  .568434188608D-11  .000000000000D+00
     .410000000000D+02 -.441562500000D+02  .425124851014D-08 -.873853844457D+00
    -.240281224251D-05  .201512395870D-02  .101476907730D-04  .515375506401D+04
     .266400000000D+06  .391155481339D-07  .260592690800D+01 -.707805156708D-07
     .962065854567D+00  .181656250000D+03 -.309772683116D+01 -.780032491484D-08
     .236081262304D-09  .100000000000D+01  .222800000000D+04  .000000000000D+00
     .240000000000D+01  .000000000000D+00 -.465661287308D-08  .553000000000D+03
     .259200000000D+06  .400000000000D+01
21 22  9 21  2  0  0.0  .159180257469D-03 -.454747350886D-12  .000000000000D+00
     .110000000000D+02  .496562500000D+02  .449768734673D-08 -.516372623964D+00
     .266917049885D-05  .243548282888D-01  .499747693539D-05  .515370154953D+04
     .266400000000D+06 -.365078449249D-06  .394495524619D+00 -.283122062683D-06
     .961015476461D+00  .288875000000D+03 -.893479717039D+00 -.847678166341D-08
     .275725770799D-09  .100000000000D+01  .222800000000D+04  .000000000000D+00
     .240000000000D+01  .000000000000D+00 -.102445483208D-07  .110000000000D+02
     .259200000000D+06  .400000000000D+01
30 22  9 21  2  0  0.0 -.537070911378D-03 -.227373675443D-12  .000000000000D+00
     .240000000000D+02  .272812500000D+02  .536450916763D-08  .276252067135D+01
     .149942934513D-05  .595049443655D-02  .695139169693D-05  .515370422554D+04
     .266400000000D+06 -.763684511185D-07 -.265082930591D+01 -.800937414169D-07
     .936006406207D+00  .235187500000D+03 -.265427538646D+01 -.824605776712D-08
     .353228999120D-09  .100000000000D+01  .222800000000D+04  .000000000000D+00
     .240000000000D+01  .000000000000D+00  .372529029846D-08  .240000000000D+02
     .259200000000D+06  .400000000000D+01
19 22  9 21  2  0  0.0  .213445629925D-03  .500222085975D-11  .000000000000D+00
     .150000000000D+02  .665000000000D+02  .401802450971D-08  .163099764987D+01
     .334158539772D-05  .912969547790D-02  .833161175251D-05  .515372588921D+04
     .266400000000D+06  .206753611565D-06 -.463239140890D+00 -.558793544769D-08
     .976544070992D+00  .223187500000D+03  .218046183774D+01 -.769639201419D-08
    -.270368404786D-09  .100000000000D+01  .222800000000D+04  .000000000000D+00
     .240000000000D+01  .000000000000D+00 -.153668224812D-07  .150000000000D+02
     .259200000000D+06  .400000000000D+01
12 22  9 21  2  0  0.0 -.281596556306D-03 -.602540239925D-11  .000000000000D+00
     .440000000000D+02  .537500000000D+01  .452304554586D-08  .216259256697D+01
     .633299350739D-07  .850336800795D-02  .699609518051D-05  .515373368073D+04
     .266400000000D+06  .409781932831D-07 -.154655003373D+01 -.184401869774D-06
     .967567348184D+00  .244812500000D+03  .131748099878D+01 -.782139722116D-08
    -.429303596504D-09  .100000000000D+01  .222800000000D+04  .000000000000D+00
     .240000000000D+01  .000000000000D+00 -.125728547573D-07  .440000000000D+02
     .259200000000D+06  .400000000000D+01
15 22  9 21  2  0  0.0 -.273222103715D-04  .306954461848D-11  .000000000000D+00
     .250000000000D+02 -.692500000000D+02  .490270421731D-08 -.151513521679D+01
    -.337325036526D-05  .145923122764D-01  .921264290810D-05  .515362116432D+04
     .266400000000D+06  .329688191414D-06  .243946803265D+01  .163912773132D-06
     .931121855866D+00  .177750000000D+03  .113510636471D+01 -.806069290307D-08
     .214294640518D-09  .100000000000D+01  .222800000000D+04  .000000000000D+00
     .240000000000D+01  .000000000000D+00 -.107102096081D-07  .250000000000D+02
     .259200000000D+06  .400000000000D+01
